ONEWEB-0202             
1 48224U 21031Q   23359.77283520  .00000195  00000+0  49158-3 0  9997
2 48224  87.8975 109.7438 0002588 112.0304 248.1101 13.14506825129556
ONEWEB-0204             
1 48225U 21031R   23359.80694842 -.00000221  00000+0 -63172-3 0  9999
2 48225  87.8974 109.7488 0001231  97.6426 262.4844 13.14502947129451
ONEWEB-0205             
1 48226U 21031S   23359.32564995  .00000080  00000+0  18074-3 0  9994
2 48226  87.8977 109.8144 0001811 101.4098 258.7235 13.14504131129390
ONEWEB-0206             
1 48227U 21031T   23359.37480054  .00000221  00000+0  56200-3 0  9993
2 48227  87.8982 109.7964 0001698  95.9711 264.1612 13.14505071129358
ONEWEB-0182             
1 48228U 21031U   23359.82675859  .00000142  00000+0  34767-3 0  9999
2 48228  87.8980 109.7283 0001432 107.1960 252.9326 13.14507606129633
ONEWEB-0186             
1 48229U 21031V   23359.83787165  .00000238  00000+0  60844-3 0  9996
2 48229  87.8986 109.6892 0001729 106.6546 253.4774 13.14504682129586
ONEWEB-0181             
1 48230U 21031W   23359.35894941  .00000006  00000+0 -18417-4 0  9990
2 48230  87.8976 109.8559 0001807 108.7763 251.3563 13.14502460129361
ONEWEB-0188             
1 48231U 21031X   23359.32089244  .00000103  00000+0  24445-3 0  9994
2 48231  87.8976 109.8610 0001713 106.2076 253.9242 13.14504228129261
